{
    "links": {
        "self": "http://www.neowsapp.com/rest/v1/neo/3648846?api_key=iIulBulltgU6a56xZRHN4H3l9WmuAYTsLGpBGhQ2"
    },
    "id": "3648846",
    "neo_reference_id": "3648846",
    "name": "(2013 TS4)",
    "designation": "2013 TS4",
    "nasa_jpl_url": "http://ssd.jpl.nasa.gov/sbdb.cgi?sstr=3648846",
    "absolute_magnitude_h": 20.9,
    "estimated_diameter": {
        "kilometers": {
            "estimated_diameter_min": 0.1756123185,
            "estimated_diameter_max": 0.3926810818
        },
        "meters": {
            "estimated_diameter_min": 175.6123184804,
            "estimated_diameter_max": 392.6810818086
        },
        "miles": {
            "estimated_diameter_min": 0.1091204019,
            "estimated_diameter_max": 0.2440006365
        },
        "feet": {
            "estimated_diameter_min": 576.1559189633,
            "estimated_diameter_max": 1288.3238004408
        }
    },
    "is_potentially_hazardous_asteroid": false,
    "close_approach_data": [
        {
            "close_approach_date": "2013-11-08",
            "close_approach_date_full": "2013-Nov-08 02:24",
            "epoch_date_close_approach": 1383877440000,
            "relative_velocity": {
                "kilometers_per_second": "1.8754846252",
                "kilometers_per_hour": "6751.7446508815",
                "miles_per_hour": "4195.2715582102"
            },
            "miss_distance": {
                "astronomical": "0.2474464228",
                "lunar": "96.2566584692",
                "kilometers": "37017457.789999436",
                "miles": "23001581.6731907768"
            },
            "orbiting_body": "Earth"
        },
        {
            "close_approach_date": "2021-10-24",
            "close_approach_date_full": "2021-Oct-24 18:02",
            "epoch_date_close_approach": 1635098520000,
            "relative_velocity": {
                "kilometers_per_second": "1.8438285146",
                "kilometers_per_hour": "6637.782652517",
                "miles_per_hour": "4124.460004282"
            },
            "miss_distance": {
                "astronomical": "0.2661005539",
                "lunar": "103.5131154671",
                "kilometers": "39808076.069260193",
                "miles": "24735591.4648209434"
            },
            "orbiting_body": "Earth"
        },
        {
            "close_approach_date": "2163-08-21",
            "close_approach_date_full": "2163-Aug-21 18:46",
            "epoch_date_close_approach": 6110621160000,
            "relative_velocity": {
                "kilometers_per_second": "6.6006695023",
                "kilometers_per_hour": "23762.4102084113",
                "miles_per_hour": "14765.0376097765"
            },
            "miss_distance": {
                "astronomical": "0.099861109",
                "lunar": "38.845971401",
                "kilometers": "14939009.20223783",
                "miles": "9282669.875148854"
            },
            "orbiting_body": "Mars"
        }
    ],
    "orbital_data": {
        "orbit_id": "40",
        "orbit_determination_date": "2017-04-06 08:44:22",
        "first_observation_date": "2013-10-03",
        "last_observation_date": "2014-01-28",
        "data_arc_in_days": 117,
        "observations_used": 191,
        "orbit_uncertainty": "4",
        "minimum_orbit_intersection": ".239704",
        "jupiter_tisserand_invariant": "3.833",
        "epoch_osculation": "2459000.5",
        "eccentricity": ".3615165748981795",
        "semi_major_axis": "1.92753896772375",
        "inclination": "2.630203284084483",
        "ascending_node_longitude": "217.3439611388008",
        "orbital_period": "977.4694141461918",
        "perihelion_distance": "1.230701682129487",
        "perihelion_argument": "186.3394512717188",
        "aphelion_distance": "2.624376253318013",
        "perihelion_time": "2458554.999125559256",
        "mean_anomaly": "164.0770672489615",
        "mean_motion": ".368297969010576",
        "equinox": "J2000",
        "orbit_class": {
            "orbit_class_type": "AMO",
            "orbit_class_description": "Near-Earth asteroid orbits similar to that of 1221 Amor",
            "orbit_class_range": "1.017 AU < q (perihelion) < 1.3 AU"
        }
    },
    "is_sentry_object": false
}